IRIDIUM 124             
1 42810U 17039H   26066.13632457  .00000476  00000+0  13545-3 0  9993
2 42810  86.4536 333.0423 0002103  84.5166 275.6275 14.43271647460398
IRIDIUM 128             
1 42811U 17039J   26066.06803955  .00000012  00000+0 -26352-5 0  9998
2 42811  86.3913  67.8419 0002090  95.1757 264.9678 14.34217710455341
IRIDIUM 121             
1 42812U 17039K   26065.95679331  .00000026  00000+0  22332-5 0  9993
2 42812  86.3969  36.3797 0002223  89.4664 270.6787 14.34217695455172
IRIDIUM 133             
1 42955U 17061A   26066.09975316  .00000013  00000+0 -23362-5 0  9995
2 42955  86.3912  67.9443 0002042  90.4730 269.6700 14.34217509440149
IRIDIUM 100             
1 42956U 17061B   26066.09341019  .00000007  00000+0 -45801-5 0  9998
2 42956  86.3911  67.8675 0002140  90.5319 269.6122 14.34217511440149
IRIDIUM 122             
1 42957U 17061C   26066.06169477 -.00000004  00000+0 -86016-5 0  9993
2 42957  86.3910  67.8810 0002017  88.5970 271.5457 14.34217423440148
IRIDIUM 129             
1 42958U 17061D   26066.08706793 -.00000024  00000+0 -15659-4 0  9990
2 42958  86.3912  67.9363 0002381  84.7332 275.4135 14.34217439440164
IRIDIUM 119             
1 42959U 17061E   26066.05535468  .00000009  00000+0 -37213-5 0  9990
2 42959  86.3912  67.9450 0002111  85.5395 274.6042 14.34217608440178
IRIDIUM 107             
1 42960U 17061F   26066.07438164 -.00000003  00000+0 -82077-5 0  9992
2 42960  86.3914  67.9578 0001772  86.7130 273.4268 14.34217523440189
IRIDIUM 132             
1 42961U 17061G   26066.08072407  .00000002  00000+0 -61975-5 0  9990
2 42961  86.3911  67.9352 0001992  90.1284 270.0140 14.34217516440184
IRIDIUM 136             
1 42962U 17061H   26066.04266918  .00000005  00000+0 -52066-5 0  9993
2 42962  86.3910  67.9572 0002032  86.6868 273.4560 14.34217585440192
IRIDIUM 139             
1 42963U 17061J   26066.04901221  .00000012  00000+0 -27375-5 0  9990
2 42963  86.3913  68.0150 0001991  91.2910 268.8514 14.34217580440207
IRIDIUM 125             
1 42964U 17061K   26066.03632596 -.00000013  00000+0 -11797-4 0  9998
2 42964  86.3913  68.0795 0001820  74.5271 285.6126 14.34217430440219
IRIDIUM 135             
1 43070U 17083A   26065.80115016  .00000410  00000+0  13924-3 0  9990
2 43070  86.4021   4.7994 0002199  85.9886 274.1561 14.34220260429471
IRIDIUM 138             
1 43071U 17083B   26065.82651888 -.00000019  00000+0 -13948-4 0  9999
2 43071  86.4027   4.4685 0002237  75.8245 284.3200 14.34217270429461
IRIDIUM 116             
1 43072U 17083C   26066.14364820  .00000009  00000+0 -39626-5 0  9993
2 43072  86.4021   4.6436 0002062  93.1284 267.0148 14.34217517429546
IRIDIUM 130             
1 43073U 17083D   26066.18170288  .00000043  00000+0  83635-5 0  9997
2 43073  86.4030   4.8929 0001932  90.6485 269.4932 14.34217696429495
