[{"OBJECT_NAME":"IRIDIUM 124","OBJECT_ID":"2017-039H","EPOCH":"2026-03-07T03:16:18.442848","MEAN_MOTION":14.43271647,"ECCENTRICITY":0.0002103,"INCLINATION":86.4536,"RA_OF_ASC_NODE":333.0423,"ARG_OF_PERICENTER":84.5166,"MEAN_ANOMALY":275.6275,"EPHEMERIS_TYPE":0,"CLASSIFICATION_TYPE":"U","NORAD_CAT_ID":42810,"ELEMENT_SET_NO":999,"REV_AT_EPOCH":46039,"BSTAR":0.00013545,"MEAN_MOTION_DOT":4.76e-6,"MEAN_MOTION_DDOT":0},{"OBJECT_NAME":"IRIDIUM 128","OBJECT_ID":"2017-039J","EPOCH":"2026-03-07T01:37:58.617120","MEAN_MOTION":14.3421771,"ECCENTRICITY":0.000209,"INCLINATION":86.3913,"RA_OF_ASC_NODE":67.8419,"ARG_OF_PERICENTER":95.1757,"MEAN_ANOMALY":264.9678,"EPHEMERIS_TYPE":0,"CLASSIFICATION_TYPE":"U","NORAD_CAT_ID":42811,"ELEMENT_SET_NO":999,"REV_AT_EPOCH":45534,"BSTAR":-2.6352e-6,"MEAN_MOTION_DOT":1.2e-7,"MEAN_MOTION_DDOT":0},{"OBJECT_NAME":"IRIDIUM 121","OBJECT_ID":"2017-039K","EPOCH":"2026-03-06T22:57:46.941984","MEAN_MOTION":14.34217695,"ECCENTRICITY":0.0002223,"INCLINATION":86.3969,"RA_OF_ASC_NODE":36.3797,"ARG_OF_PERICENTER":89.4664,"MEAN_ANOMALY":270.6787,"EPHEMERIS_TYPE":0,"CLASSIFICATION_TYPE":"U","NORAD_CAT_ID":42812,"ELEMENT_SET_NO":999,"REV_AT_EPOCH":45517,"BSTAR":2.2332e-6,"MEAN_MOTION_DOT":2.6e-7,"MEAN_MOTION_DDOT":0},{"OBJECT_NAME":"IRIDIUM 133","OBJECT_ID":"2017-061A","EPOCH":"2026-03-07T02:23:38.673024","MEAN_MOTION":14.34217509,"ECCENTRICITY":0.0002042,"INCLINATION":86.3912,"RA_OF_ASC_NODE":67.9443,"ARG_OF_PERICENTER":90.473,"MEAN_ANOMALY":269.67,"EPHEMERIS_TYPE":0,"CLASSIFICATION_TYPE":"U","NORAD_CAT_ID":42955,"ELEMENT_SET_NO":999,"REV_AT_EPOCH":44014,"BSTAR":-2.3362e-6,"MEAN_MOTION_DOT":1.3e-7,"MEAN_MOTION_DDOT":0},{"OBJECT_NAME":"IRIDIUM 100","OBJECT_ID":"2017-061B","EPOCH":"2026-03-07T02:14:30.640416","MEAN_MOTION":14.34217511,"ECCENTRICITY":0.000214,"INCLINATION":86.3911,"RA_OF_ASC_NODE":67.8675,"ARG_OF_PERICENTER":90.5319,"MEAN_ANOMALY":269.6122,"EPHEMERIS_TYPE":0,"CLASSIFICATION_TYPE":"U","NORAD_CAT_ID":42956,"ELEMENT_SET_NO":999,"REV_AT_EPOCH":44014,"BSTAR":-4.5801e-6,"MEAN_MOTION_DOT":7.0e-8,"MEAN_MOTION_DDOT":0},{"OBJECT_NAME":"IRIDIUM 122","OBJECT_ID":"2017-061C","EPOCH":"2026-03-07T01:28:50.428128","MEAN_MOTION":14.34217423,"ECCENTRICITY":0.0002017,"INCLINATION":86.391,"RA_OF_ASC_NODE":67.881,"ARG_OF_PERICENTER":88.597,"MEAN_ANOMALY":271.5457,"EPHEMERIS_TYPE":0,"CLASSIFICATION_TYPE":"U","NORAD_CAT_ID":42957,"ELEMENT_SET_NO":999,"REV_AT_EPOCH":44014,"BSTAR":-8.6016e-6,"MEAN_MOTION_DOT":-4.0e-8,"MEAN_MOTION_DDOT":0},{"OBJECT_NAME":"IRIDIUM 129","OBJECT_ID":"2017-061D","EPOCH":"2026-03-07T02:05:22.669152","MEAN_MOTION":14.34217439,"ECCENTRICITY":0.0002381,"INCLINATION":86.3912,"RA_OF_ASC_NODE":67.9363,"ARG_OF_PERICENTER":84.7332,"MEAN_ANOMALY":275.4135,"EPHEMERIS_TYPE":0,"CLASSIFICATION_TYPE":"U","NORAD_CAT_ID":42958,"ELEMENT_SET_NO":999,"REV_AT_EPOCH":44016,"BSTAR":-1.5659e-5,"MEAN_MOTION_DOT":-2.4e-7,"MEAN_MOTION_DDOT":0},{"OBJECT_NAME":"IRIDIUM 119","OBJECT_ID":"2017-061E","EPOCH":"2026-03-07T01:19:42.644352","MEAN_MOTION":14.34217608,"ECCENTRICITY":0.0002111,"INCLINATION":86.3912,"RA_OF_ASC_NODE":67.945,"ARG_OF_PERICENTER":85.5395,"MEAN_ANOMALY":274.6042,"EPHEMERIS_TYPE":0,"CLASSIFICATION_TYPE":"U","NORAD_CAT_ID":42959,"ELEMENT_SET_NO":999,"REV_AT_EPOCH":44017,"BSTAR":-3.7213e-6,"MEAN_MOTION_DOT":9.0e-8,"MEAN_MOTION_DDOT":0},{"OBJECT_NAME":"IRIDIUM 107","OBJECT_ID":"2017-061F","EPOCH":"2026-03-07T01:47:06.573696","MEAN_MOTION":14.34217523,"ECCENTRICITY":0.0001772,"INCLINATION":86.3914,"RA_OF_ASC_NODE":67.9578,"ARG_OF_PERICENTER":86.713,"MEAN_ANOMALY":273.4268,"EPHEMERIS_TYPE":0,"CLASSIFICATION_TYPE":"U","NORAD_CAT_ID":42960,"ELEMENT_SET_NO":999,"REV_AT_EPOCH":44018,"BSTAR":-8.2077e-6,"MEAN_MOTION_DOT":-3.0e-8,"MEAN_MOTION_DDOT":0},{"OBJECT_NAME":"IRIDIUM 132","OBJECT_ID":"2017-061G","EPOCH":"2026-03-07T01:56:14.559648","MEAN_MOTION":14.34217516,"ECCENTRICITY":0.0001992,"INCLINATION":86.3911,"RA_OF_ASC_NODE":67.9352,"ARG_OF_PERICENTER":90.1284,"MEAN_ANOMALY":270.014,"EPHEMERIS_TYPE":0,"CLASSIFICATION_TYPE":"U","NORAD_CAT_ID":42961,"ELEMENT_SET_NO":999,"REV_AT_EPOCH":44018,"BSTAR":-6.1975e-6,"MEAN_MOTION_DOT":2.0e-8,"MEAN_MOTION_DDOT":0},{"OBJECT_NAME":"IRIDIUM 136","OBJECT_ID":"2017-061H","EPOCH":"2026-03-07T01:01:26.617152","MEAN_MOTION":14.34217585,"ECCENTRICITY":0.0002032,"INCLINATION":86.391,"RA_OF_ASC_NODE":67.9572,"ARG_OF_PERICENTER":86.6868,"MEAN_ANOMALY":273.456,"EPHEMERIS_TYPE":0,"CLASSIFICATION_TYPE":"U","NORAD_CAT_ID":42962,"ELEMENT_SET_NO":999,"REV_AT_EPOCH":44019,"BSTAR":-5.2066e-6,"MEAN_MOTION_DOT":5.0e-8,"MEAN_MOTION_DDOT":0},{"OBJECT_NAME":"IRIDIUM 139","OBJECT_ID":"2017-061J","EPOCH":"2026-03-07T01:10:34.654944","MEAN_MOTION":14.3421758,"ECCENTRICITY":0.0001991,"INCLINATION":86.3913,"RA_OF_ASC_NODE":68.015,"ARG_OF_PERICENTER":91.291,"MEAN_ANOMALY":268.8514,"EPHEMERIS_TYPE":0,"CLASSIFICATION_TYPE":"U","NORAD_CAT_ID":42963,"ELEMENT_SET_NO":999,"REV_AT_EPOCH":44020,"BSTAR":-2.7375e-6,"MEAN_MOTION_DOT":1.2e-7,"MEAN_MOTION_DDOT":0},{"OBJECT_NAME":"IRIDIUM 125","OBJECT_ID":"2017-061K","EPOCH":"2026-03-07T00:52:18.562944","MEAN_MOTION":14.3421743,"ECCENTRICITY":0.000182,"INCLINATION":86.3913,"RA_OF_ASC_NODE":68.0795,"ARG_OF_PERICENTER":74.5271,"MEAN_ANOMALY":285.6126,"EPHEMERIS_TYPE":0,"CLASSIFICATION_TYPE":"U","NORAD_CAT_ID":42964,"ELEMENT_SET_NO":999,"REV_AT_EPOCH":44021,"BSTAR":-1.1797e-5,"MEAN_MOTION_DOT":-1.3e-7,"MEAN_MOTION_DDOT":0},{"OBJECT_NAME":"IRIDIUM 135","OBJECT_ID":"2017-083A","EPOCH":"2026-03-06T19:13:39.373824","MEAN_MOTION":14.3422026,"ECCENTRICITY":0.0002199,"INCLINATION":86.4021,"RA_OF_ASC_NODE":4.7994,"ARG_OF_PERICENTER":85.9886,"MEAN_ANOMALY":274.1561,"EPHEMERIS_TYPE":0,"CLASSIFICATION_TYPE":"U","NORAD_CAT_ID":43070,"ELEMENT_SET_NO":999,"REV_AT_EPOCH":42947,"BSTAR":0.00013924,"MEAN_MOTION_DOT":4.1e-6,"MEAN_MOTION_DDOT":0},{"OBJECT_NAME":"IRIDIUM 138","OBJECT_ID":"2017-083B","EPOCH":"2026-03-06T19:50:11.231232","MEAN_MOTION":14.3421727,"ECCENTRICITY":0.0002237,"INCLINATION":86.4027,"RA_OF_ASC_NODE":4.4685,"ARG_OF_PERICENTER":75.8245,"MEAN_ANOMALY":284.32,"EPHEMERIS_TYPE":0,"CLASSIFICATION_TYPE":"U","NORAD_CAT_ID":43071,"ELEMENT_SET_NO":999,"REV_AT_EPOCH":42946,"BSTAR":-1.3948e-5,"MEAN_MOTION_DOT":-1.9e-7,"MEAN_MOTION_DDOT":0},{"OBJECT_NAME":"IRIDIUM 116","OBJECT_ID":"2017-083C","EPOCH":"2026-03-07T03:26:51.204480","MEAN_MOTION":14.34217517,"ECCENTRICITY":0.0002062,"INCLINATION":86.4021,"RA_OF_ASC_NODE":4.6436,"ARG_OF_PERICENTER":93.1284,"MEAN_ANOMALY":267.0148,"EPHEMERIS_TYPE":0,"CLASSIFICATION_TYPE":"U","NORAD_CAT_ID":43072,"ELEMENT_SET_NO":999,"REV_AT_EPOCH":42954,"BSTAR":-3.9626e-6,"MEAN_MOTION_DOT":9.0e-8,"MEAN_MOTION_DDOT":0},{"OBJECT_NAME":"IRIDIUM 130","OBJECT_ID":"2017-083D","EPOCH":"2026-03-07T04:21:39.128832","MEAN_MOTION":14.34217696,"ECCENTRICITY":0.0001932,"INCLINATION":86.403,"RA_OF_ASC_NODE":4.8929,"ARG_OF_PERICENTER":90.6485,"MEAN_ANOMALY":269.4932,"EPHEMERIS_TYPE":0,"CLASSIFICATION_TYPE":"U","NORAD_CAT_ID":43073,"ELEMENT_SET_NO":999,"REV_AT_EPOCH":42949,"BSTAR":8.3635e-6,"MEAN_MOTION_DOT":4.3e-7,"MEAN_MOTION_DDOT":0}]
